NORAD_CAT_ID,OBJECT_NAME,OBJECT_TYPE,EPOCH,MEAN_MOTION,ECCENTRICITY,INCLINATION,RA_OF_ASC_NODE,ARG_OF_PERICENTER,MEAN_ANOMALY,BSTAR,MEAN_MOTION_DOT,MEAN_MOTION_DDOT,TLE_LINE0,TLE_LINE1,TLE_LINE2,SEMIMAJOR_AXIS,PERIOD,APOGEE,PERIGEE,DECAYED
53014.0,STARLINK-4183,PAYLOAD,2022-07-24 06:00:00,15.73189246,0.0001571,53.2193,296.9092,36.2582,128.7729,0.0005248,0.00073647,0.0,0 STARLINK-4183,1 53014U 22076AE  22205.25001157  .00073647  00000-0  52480-3 0  9991,2 53014  53.2193 296.9092 0001571  36.2582 128.7729 15.73189246  3123,6727.926,91.534,350.848,348.7340000000001,0.0
53014.0,STARLINK-4183,PAYLOAD,2022-07-24 14:00:01,15.73233586,0.0001909999999999,53.2195,295.2621,33.4113,220.5326,-0.00038461,-0.00054332,0.0,0 STARLINK-4183,1 53014U 22076AE  22205.58334491 -.00054332  00000-0 -38461-3 0  9992,2 53014  53.2195 295.2621 0001910  33.4113 220.5326 15.73233586  1300,6727.799,91.531,350.949,348.379,0.0
53014.0,STARLINK-4183,PAYLOAD,2022-07-24 22:00:00,15.73195417,0.0001939,53.2197,293.6116,36.3141,306.5733,4.5917e-05,5.827e-05,0.0,0 STARLINK-4183,1 53014U 22076AE  22205.91667824  .00005827  00000-0  45917-4 0  9996,2 53014  53.2197 293.6116 0001939  36.3141 306.5733 15.73195417  1304,6727.908,91.533,351.07800000000015,348.469,0.0
53014.0,STARLINK-4183,PAYLOAD,2022-07-25 06:00:00,15.73194976,0.0001906999999999,53.2199,291.9613,41.0151,30.776,0.00031904,0.00044383,0.0,0 STARLINK-4183,1 53014U 22076AE  22206.25001157  .00044383  00000-0  31904-3 0  9995,2 53014  53.2199 291.9613 0001907  41.0151  30.7760 15.73194976  3282,6727.909000000002,91.533,351.05800000000005,348.491,0.0
53014.0,STARLINK-4183,PAYLOAD,2022-07-25 14:00:01,15.73235525,0.0002117,53.2196,290.314,34.1462,126.592,-0.00038219,-0.00054003,0.0,0 STARLINK-4183,1 53014U 22076AE  22206.58334491 -.00054003  00000-0 -38219-3 0  9999,2 53014  53.2196 290.3140 0002117  34.1462 126.5920 15.73235525  1308,6727.794,91.531,351.083,348.235,0.0
53014.0,STARLINK-4183,PAYLOAD,2022-07-25 22:00:00,15.73202199,0.0001921999999999,53.2191,288.6635,31.9649,217.7224,-4.1764e-05,-6.479e-05,0.0,0 STARLINK-4183,1 53014U 22076AE  22206.91667824 -.00006479  00000-0 -41764-4 0  9999,2 53014  53.2191 288.6635 0001922  31.9649 217.7224 15.73202199  3399,6727.889,91.533,351.047,348.461,0.0
53014.0,STARLINK-4183,PAYLOAD,2022-07-26 14:00:01,15.73239609,0.0002008,53.2195,285.3664,28.0242,39.5306,-0.00036324,-0.00051379,0.0,0 STARLINK-4183,1 53014U 22076AE  22207.58334491 -.00051379  00000-0 -36324-3 0  9998,2 53014  53.2195 285.3664 0002008  28.0242  39.5306 15.73239609  3499,6727.781999999997,91.531,350.99800000000016,348.296,0.0
53014.0,STARLINK-4183,PAYLOAD,2022-07-26 22:00:00,15.73204515,0.0001884,53.2196,283.7155,24.253,132.2665,-3.1329e-06,-1.061e-05,0.0,0 STARLINK-4183,1 53014U 22076AE  22207.91667824 -.00001061  00000-0 -31329-5 0  9999,2 53014  53.2196 283.7155 0001884  24.2530 132.2665 15.73204515  1301,6727.882,91.533,351.015,348.48,0.0
53014.0,STARLINK-4183,PAYLOAD,2022-07-27 06:00:02,15.73227266,0.0001824,53.2197,282.0656,27.3989,218.1158,0.00019098,0.00026298,0.0,0 STARLINK-4183,1 53014U 22076AE  22208.25002315  .00026298  00000-0  19098-3 0  9999,2 53014  53.2197 282.0656 0001824  27.3989 218.1158 15.73227266  3600,6727.816999999999,91.532,350.91,348.455,0.0
53014.0,STARLINK-4183,PAYLOAD,2022-07-27 14:00:01,15.7322051,0.000208,53.2194,280.4183,22.3059,312.1037,-0.00028292,-0.00040176,0.0,0 STARLINK-4183,1 53014U 22076AE  22208.58334491 -.00040176  00000-0 -28292-3 0  9997,2 53014  53.2194 280.4183 0002080  22.3059 312.1037 15.73220510  1303,6727.837,91.532,351.101,348.302,0.0
53014.0,STARLINK-4183,PAYLOAD,2022-07-27 16:00:00,15.73183935,0.000208,53.219,280.006,19.6969,66.9592,0.0001947,0.00026774,0.0,0 STARLINK-4183,1 53014U 22076AE  22208.66667824  .00026774  00000-0  19470-3 0  9999,2 53014  53.2190 280.0060 0002080  19.6969  66.9592 15.73183935  3668,6727.941,91.534,351.205,348.407,0.0
53014.0,STARLINK-4183,PAYLOAD,2022-07-27 22:00:00,15.73209091,0.0002151999999999,53.2189,278.7675,33.0153,30.3056,0.00010895,0.00014703,0.0,0 STARLINK-4183,1 53014U 22076AE  22208.91667824  .00014703  00000-0  10895-3 0  9998,2 53014  53.2189 278.7675 0002152  33.0153  30.3056 15.73209091  1308,6727.869000000002,91.533,351.182,348.286,0.0
53014.0,STARLINK-4183,PAYLOAD,2022-07-28 14:00:01,15.73178075,0.0002289,53.219,275.4705,27.6167,213.6106,0.00020281,0.00027912,0.0,0 STARLINK-4183,1 53014U 22076AE  22209.58334491  .00027912  00000-0  20281-3 0  9999,2 53014  53.2190 275.4705 0002289  27.6167 213.6106 15.73178075  1302,6727.958000000001,91.534,351.36300000000006,348.283,0.0
53014.0,STARLINK-4183,PAYLOAD,2022-07-28 22:00:00,15.73208109,0.0002110999999999,53.2191,273.8194,27.7708,302.3824,0.0001217,0.00016499,0.0,0 STARLINK-4183,1 53014U 22076AE  22209.91667824  .00016499  00000-0  12170-3 0  9991,2 53014  53.2191 273.8194 0002111  27.7708 302.3824 15.73208109  1308,6727.871999999999,91.533,351.157,348.31699999999995,0.0
53014.0,STARLINK-4183,PAYLOAD,2022-07-29 00:00:00,15.73188506,0.0002053,53.219,273.4066,27.6234,54.7718,0.00048863,0.00068486,0.0,0 STARLINK-4183,1 53014U 22076AE  22210.00001157  .00068486  00000-0  48863-3 0  9995,2 53014  53.2190 273.4066 0002053  27.6234  54.7718 15.73188506  3871,6727.928000000001,91.534,351.1740000000001,348.412,0.0
53014.0,STARLINK-4183,PAYLOAD,2022-07-29 14:00:01,15.73159516,0.0002351,53.2185,270.5191,23.7278,124.3498,0.00048688,0.00068152,0.0,0 STARLINK-4183,1 53014U 22076AE  22210.58334491  .00068152  00000-0  48688-3 0  9993,2 53014  53.2185 270.5191 0002351  23.7278 124.3498 15.73159516  1302,6728.011,91.536,351.457,348.2940000000001,0.0
53014.0,STARLINK-4183,PAYLOAD,2022-07-29 22:00:00,15.73193858,0.0002121999999999,53.2184,268.8711,23.537,213.4361,0.000135,0.00018363,0.0,0 STARLINK-4183,1 53014U 22076AE  22210.91667824  .00018363  00000-0  13500-3 0  9993,2 53014  53.2184 268.8711 0002122  23.5370 213.4361 15.73193858  4024,6727.913000000001,91.534,351.205,348.35,0.0
53014.0,STARLINK-4183,PAYLOAD,2022-07-30 14:00:01,15.73198352,0.0002269,53.2184,265.5742,18.9002,35.9552,-7.63e-05,-0.00011316,0.0,0 STARLINK-4183,1 53014U 22076AE  22211.58334491 -.00011316  00000-0 -76300-4 0  9999,2 53014  53.2184 265.5742 0002269  18.9002  35.9552 15.73198352  1305,6727.9,91.533,351.291,348.23800000000006,0.0
53014.0,STARLINK-4183,PAYLOAD,2022-07-30 22:00:00,15.73178061,0.0002108,53.2186,263.9228,17.6383,126.1439,0.00022494,0.00031037,0.0,0 STARLINK-4183,1 53014U 22076AE  22211.91667824  .00031037  00000-0  22494-3 0  9999,2 53014  53.2186 263.9228 0002108  17.6383 126.1439 15.73178061  4178,6727.958000000001,91.534,351.241,348.404,0.0
53014.0,STARLINK-4183,PAYLOAD,2022-07-31 14:00:01,15.73208744,0.0002489,53.2183,260.6257,20.5561,301.0789,0.00013334,0.00018141,0.0,0 STARLINK-4183,1 53014U 22076AE  22212.58334491  .00018141  00000-0  13334-3 0  9998,2 53014  53.2183 260.6257 0002489  20.5561 301.0789 15.73208744  1300,6727.87,91.533,351.41,348.061,0.0
53014.0,STARLINK-4183,PAYLOAD,2022-07-31 22:00:00,15.73181496,0.000226,53.2182,258.9742,25.987,24.6141,6.407e-05,8.373e-05,0.0,0 STARLINK-4183,1 53014U 22076AE  22212.91667824  .00008373  00000-0  64070-4 0  9994,2 53014  53.2182 258.9742 0002260  25.9870  24.6141 15.73181496  4337,6727.948,91.534,351.333,348.292,0.0
53014.0,STARLINK-4183,PAYLOAD,2022-08-01 14:00:01,15.73188163,0.0002563999999999,53.2182,255.6774,25.3632,203.084,0.00054726,0.00076857,0.0,0 STARLINK-4183,1 53014U 22076AE  22213.58334491  .00076857  00000-0  54726-3 0  9997,2 53014  53.2182 255.6774 0002564  25.3632 203.0840 15.73188163  1304,6727.929,91.534,351.519,348.069,0.0
53014.0,STARLINK-4183,PAYLOAD,2022-08-01 22:00:00,15.73236222,0.0002335999999999,53.2186,254.0258,26.4416,290.9486,-0.00030717,-0.00043581,0.0,0 STARLINK-4183,1 53014U 22076AE  22213.91667824 -.00043581  00000-0 -30717-3 0  9997,2 53014  53.2186 254.0258 0002336  26.4416 290.9486 15.73236222  1308,6727.792,91.531,351.22900000000016,348.085,0.0
53014.0,STARLINK-4183,PAYLOAD,2022-08-02 14:00:01,15.73187186,0.0002597,53.2185,250.7286,22.8003,112.4743,0.00032416,0.00045097,0.0,0 STARLINK-4183,1 53014U 22076AE  22214.58334491  .00045097  00000-0  32416-3 0  9992,2 53014  53.2185 250.7286 0002597  22.8003 112.4743 15.73187186  1300,6727.932,91.534,351.5440000000001,348.0490000000001,0.0
53014.0,STARLINK-4183,PAYLOAD,2022-08-03 06:00:00,15.73196656,0.0002367,53.2186,247.4287,21.6858,291.4384,-6.3606e-05,-9.538e-05,0.0,0 STARLINK-4183,1 53014U 22076AE  22215.25001157 -.00009538  00000-0 -63606-4 0  9995,2 53014  53.2186 247.4287 0002367  21.6858 291.4384 15.73196656  4703,6727.905,91.533,351.362,348.177,0.0
53014.0,STARLINK-4183,PAYLOAD,2022-08-03 14:00:01,15.73183139,0.0002582,53.2185,245.7804,19.8788,22.1666,0.00041059,0.00057361,0.0,0 STARLINK-4183,1 53014U 22076AE  22215.58334491  .00057361  00000-0  41059-3 0  9993,2 53014  53.2185 245.7804 0002582  19.8788  22.1666 15.73183139  1305,6727.943,91.534,351.545,348.071,0.0
53014.0,STARLINK-4183,PAYLOAD,2022-08-03 22:00:01,15.73201921,0.0002323,53.219,244.1288,21.2433,109.8102,0.00036214,0.00050517,0.0,0 STARLINK-4183,1 53014U 22076AE  22215.91668981  .00050517  00000-0  36214-3 0  9997,2 53014  53.2190 244.1288 0002323  21.2433 109.8102 15.73201921  1305,6727.89,91.533,351.3180000000001,348.19199999999995,0.0
53014.0,STARLINK-4183,PAYLOAD,2022-08-04 06:00:00,15.732390400000002,0.0002463999999999,53.2193,242.4804,20.4333,199.5092,-0.00052892,-0.00074335,0.0,0 STARLINK-4183,1 53014U 22076AE  22216.25001157 -.00074335  00000-0 -52892-3 0  9997,2 53014  53.2193 242.4804 0002464  20.4333 199.5092 15.73239040  4860,6727.784000000002,91.531,351.307,347.991,0.0
53014.0,STARLINK-4183,PAYLOAD,2022-08-04 14:00:01,15.73185501,0.000262,53.219,240.8319,17.016,291.8653,0.00034875,0.00048582,0.0,0 STARLINK-4183,1 53014U 22076AE  22216.58334491  .00048582  00000-0  34875-3 0  9997,2 53014  53.2190 240.8319 0002620  17.0160 291.8653 15.73185501  4911,6727.937,91.534,351.564,348.039,0.0
